[
    {
        "Altitude(m)": 554256.069756911,
        "Argument of Periapsis(deg)": 0.0,
        "Eccentricity": 0.0,
        "Inclination(deg)": 53.0,
        "Latitude(deg)": -0.07923715655627386,
        "Longitude(deg)": 120.09017757558618,
        "Mean Anomaly(deg)": 180.0,
        "RAAN(deg)": 40.0,
        "Satellite Name": "Starlink Shell 1 187",
        "Satellite Number": 187,
        "Semi-Major Axis(m)": 6931778.249405717,
        "Time(s)": 0
    },
    {
        "Altitude(m)": 554323.2803388733,
        "Argument of Periapsis(deg)": 0.00034857847951123687,
        "Eccentricity": 0.0,
        "Inclination(deg)": 53.0,
        "Latitude(deg)": -0.5831650639764095,
        "Longitude(deg)": 120.4255545092258,
        "Mean Anomaly(deg)": 180.6268312035567,
        "RAAN(deg)": 39.99948122992253,
        "Satellite Name": "Starlink Shell 1 187",
        "Satellite Number": 187,
        "Semi-Major Axis(m)": 6931778.249405717,
        "Time(s)": 10
    },
    {
        "Altitude(m)": 554393.2769368222,
        "Argument of Periapsis(deg)": 0.0006971569590224737,
        "Eccentricity": 0.0,
        "Inclination(deg)": 53.0,
        "Latitude(deg)": -1.0870569140741753,
        "Longitude(deg)": 120.76099108355187,
        "Mean Anomaly(deg)": 181.25366240711347,
        "RAAN(deg)": 39.99896245984505,
        "Satellite Name": "Starlink Shell 1 187",
        "Satellite Number": 187,
        "Semi-Major Axis(m)": 6931778.249405717,
        "Time(s)": 20
    },
    {
        "Altitude(m)": 554466.0493153573,
        "Argument of Periapsis(deg)": 0.0010457354385337105,
        "Eccentricity": 0.0,
        "Inclination(deg)": 53.0,
        "Latitude(deg)": -1.5908898047510789,
        "Longitude(deg)": 121.09654484709094,
        "Mean Anomaly(deg)": 181.88049361067016,
        "RAAN(deg)": 39.99844368976758,
        "Satellite Name": "Starlink Shell 1 187",
        "Satellite Number": 187,
        "Semi-Major Axis(m)": 6931778.249405717,
        "Time(s)": 30
    },
    {
        "Altitude(m)": 554541.5858883307,
        "Argument of Periapsis(deg)": 0.0013943139180449475,
        "Eccentricity": 0.0,
        "Inclination(deg)": 53.0,
        "Latitude(deg)": -2.0946408124940503,
        "Longitude(deg)": 121.43227390139738,
        "Mean Anomaly(deg)": 182.50732481422682,
        "RAAN(deg)": 39.997924919690114,
        "Satellite Name": "Starlink Shell 1 187",
        "Satellite Number": 187,
        "Semi-Major Axis(m)": 6931778.249405717,
        "Time(s)": 40
    },
    {
        "Altitude(m)": 554619.8737218835,
        "Argument of Periapsis(deg)": 0.0017428923975561844,
        "Eccentricity": 0.0,
        "Inclination(deg)": 53.0,
        "Latitude(deg)": -2.598286980664031,
        "Longitude(deg)": 121.7682359177078,
        "Mean Anomaly(deg)": 183.13415601778357,
        "RAAN(deg)": 39.99740614961264,
        "Satellite Name": "Starlink Shell 1 187",
        "Satellite Number": 187,
        "Semi-Major Axis(m)": 6931778.249405717,
        "Time(s)": 50
    },
    {
        "Altitude(m)": 554700.8985381328,
        "Argument of Periapsis(deg)": 0.002091470877067421,
        "Eccentricity": 0.0,
        "Inclination(deg)": 53.0,
        "Latitude(deg)": -3.1018053077532857,
        "Longitude(deg)": 122.10448866648753,
        "Mean Anomaly(deg)": 183.7609872213403,
        "RAAN(deg)": 39.99688737953517,
        "Satellite Name": "Starlink Shell 1 187",
        "Satellite Number": 187,
        "Semi-Major Axis(m)": 6931778.249405717,
        "Time(s)": 60
    },
    {
        "Altitude(m)": 554784.6447195809,
        "Argument of Periapsis(deg)": 0.0024400493565786582,
        "Eccentricity": 0.0,
        "Inclination(deg)": 53.0,
        "Latitude(deg)": -3.605172735597861,
        "Longitude(deg)": 122.44109054700276,
        "Mean Anomaly(deg)": 184.387818424897,
        "RAAN(deg)": 39.9963686094577,
        "Satellite Name": "Starlink Shell 1 187",
        "Satellite Number": 187,
        "Semi-Major Axis(m)": 6931778.249405717,
        "Time(s)": 70
    },
    {
        "Altitude(m)": 554871.0953141232,
        "Argument of Periapsis(deg)": 0.002788627836089895,
        "Eccentricity": 0.0,
        "Inclination(deg)": 53.0,
        "Latitude(deg)": -4.108366137533672,
        "Longitude(deg)": 122.77809960405378,
        "Mean Anomaly(deg)": 185.0146496284537,
        "RAAN(deg)": 39.99584983938022,
        "Satellite Name": "Starlink Shell 1 187",
        "Satellite Number": 187,
        "Semi-Major Axis(m)": 6931778.249405717,
        "Time(s)": 80
    },
    {
        "Altitude(m)": 554960.2320407826,
        "Argument of Periapsis(deg)": 0.0031372063156011316,
        "Eccentricity": 0.0,
        "Inclination(deg)": 53.0,
        "Latitude(deg)": -4.611362306485941,
        "Longitude(deg)": 123.11557405762001,
        "Mean Anomaly(deg)": 185.64148083201044,
        "RAAN(deg)": 39.99533106930275,
        "Satellite Name": "Starlink Shell 1 187",
        "Satellite Number": 187,
        "Semi-Major Axis(m)": 6931778.249405717,
        "Time(s)": 90
    },
    {
        "Altitude(m)": 555052.0352960805,
        "Argument of Periapsis(deg)": 0.0034857847951123688,
        "Eccentricity": 0.0,
        "Inclination(deg)": 53.0,
        "Latitude(deg)": -5.1141379429809275,
        "Longitude(deg)": 123.45357283255329,
        "Mean Anomaly(deg)": 186.26831203556716,
        "RAAN(deg)": 39.994812299225266,
        "Satellite Name": "Starlink Shell 1 187",
        "Satellite Number": 187,
        "Semi-Major Axis(m)": 6931778.249405717,
        "Time(s)": 100
    },
    {
        "Altitude(m)": 555146.4841610864,
        "Argument of Periapsis(deg)": 0.003834363274623606,
        "Eccentricity": 0.0,
        "Inclination(deg)": 53.0,
        "Latitude(deg)": -5.616669643066312,
        "Longitude(deg)": 123.79215457545018,
        "Mean Anomaly(deg)": 186.89514323912385,
        "RAAN(deg)": 39.9942935291478,
        "Satellite Name": "Starlink Shell 1 187",
        "Satellite Number": 187,
        "Semi-Major Axis(m)": 6931778.249405717,
        "Time(s)": 110
    },
    {
        "Altitude(m)": 555243.5564091041,
        "Argument of Periapsis(deg)": 0.004182941754134842,
        "Eccentricity": 0.0,
        "Inclination(deg)": 53.0,
        "Latitude(deg)": -6.118933886131869,
        "Longitude(deg)": 124.13137818445685,
        "Mean Anomaly(deg)": 187.52197444268057,
        "RAAN(deg)": 39.99377475907033,
        "Satellite Name": "Starlink Shell 1 187",
        "Satellite Number": 187,
        "Semi-Major Axis(m)": 6931778.249405717,
        "Time(s)": 120
    },
    {
        "Altitude(m)": 555343.2285140338,
        "Argument of Periapsis(deg)": 0.004531520233646079,
        "Eccentricity": 0.0,
        "Inclination(deg)": 53.0,
        "Latitude(deg)": -6.620907022617111,
        "Longitude(deg)": 124.47130333913785,
        "Mean Anomaly(deg)": 188.1488056462373,
        "RAAN(deg)": 39.99325598899285,
        "Satellite Name": "Starlink Shell 1 187",
        "Satellite Number": 187,
        "Semi-Major Axis(m)": 6931778.249405717,
        "Time(s)": 130
    },
    {
        "Altitude(m)": 555445.475659368,
        "Argument of Periapsis(deg)": 0.0048800987131573164,
        "Eccentricity": 0.0,
        "Inclination(deg)": 53.0,
        "Latitude(deg)": -7.122565261593855,
        "Longitude(deg)": 124.81198951754169,
        "Mean Anomaly(deg)": 188.77563684979404,
        "RAAN(deg)": 39.99273721891538,
        "Satellite Name": "Starlink Shell 1 187",
        "Satellite Number": 187,
        "Semi-Major Axis(m)": 6931778.249405717,
        "Time(s)": 140
    },
    {
        "Altitude(m)": 555550.271747841,
        "Argument of Periapsis(deg)": 0.005228677192668553,
        "Eccentricity": 0.0,
        "Inclination(deg)": 53.0,
        "Latitude(deg)": -7.623884658213885,
        "Longitude(deg)": 125.15349652621269,
        "Mean Anomaly(deg)": 189.40246805335073,
        "RAAN(deg)": 39.99221844883791,
        "Satellite Name": "Starlink Shell 1 187",
        "Satellite Number": 187,
        "Semi-Major Axis(m)": 6931778.249405717,
        "Time(s)": 150
    },
    {
        "Altitude(m)": 555657.5894117109,
        "Argument of Periapsis(deg)": 0.00557725567217979,
        "Eccentricity": 0.0,
        "Inclination(deg)": 53.0,
        "Latitude(deg)": -8.124841101009338,
        "Longitude(deg)": 125.49588503028009,
        "Mean Anomaly(deg)": 190.02929925690748,
        "RAAN(deg)": 39.99169967876043,
        "Satellite Name": "Starlink Shell 1 187",
        "Satellite Number": 187,
        "Semi-Major Axis(m)": 6931778.249405717,
        "Time(s)": 160
    },
    {
        "Altitude(m)": 555767.4000236865,
        "Argument of Periapsis(deg)": 0.0059258341516910265,
        "Eccentricity": 0.0,
        "Inclination(deg)": 53.0,
        "Latitude(deg)": -8.625410299032573,
        "Longitude(deg)": 125.83921557075449,
        "Mean Anomaly(deg)": 190.65613046046414,
        "RAAN(deg)": 39.99118090868296,
        "Satellite Name": "Starlink Shell 1 187",
        "Satellite Number": 187,
        "Semi-Major Axis(m)": 6931778.249405717,
        "Time(s)": 170
    },
    {
        "Altitude(m)": 555879.6737084619,
        "Argument of Periapsis(deg)": 0.006274412631202263,
        "Eccentricity": 0.0,
        "Inclination(deg)": 53.0,
        "Latitude(deg)": -9.125567768826702,
        "Longitude(deg)": 126.1835490947797,
        "Mean Anomaly(deg)": 191.28296166402086,
        "RAAN(deg)": 39.990662138605494,
        "Satellite Name": "Starlink Shell 1 187",
        "Satellite Number": 187,
        "Semi-Major Axis(m)": 6931778.249405717,
        "Time(s)": 180
    }
]